NORAD_CAT_ID,OBJECT_NAME,OBJECT_TYPE,EPOCH,MEAN_MOTION,ECCENTRICITY,INCLINATION,RA_OF_ASC_NODE,ARG_OF_PERICENTER,MEAN_ANOMALY,BSTAR,MEAN_MOTION_DOT,MEAN_MOTION_DDOT,TLE_LINE0,TLE_LINE1,TLE_LINE2,SEMIMAJOR_AXIS,PERIOD,APOGEE,PERIGEE,DECAYED
54103.0,STARLINK-5200,PAYLOAD,2024-01-14 18:47:44,15.08838032,0.0001321,53.2162,237.4886,89.8445,270.2699,9.8896e-05,1.286e-05,0.0,0 STARLINK-5200,1 54103U 22136BE  24014.78315629  .00001286  00000-0  98896-4 0  9990,2 54103  53.2162 237.4886 0001321  89.8445 270.2699 15.08838032 69241,6917.886,95.438,540.665,538.838,0.0
54103.0,STARLINK-5200,PAYLOAD,2024-01-14 20:23:07,15.08838918,0.0001404,53.2161,237.1913,91.4352,268.6801,9.9921e-05,1.303e-05,0.0,0 STARLINK-5200,1 54103U 22136BE  24014.84939590  .00001303  00000-0  99921-4 0  9996,2 54103  53.2161 237.1913 0001404  91.4352 268.6801 15.08838918 68783,6917.884,95.438,540.72,538.777,0.0
54103.0,STARLINK-5200,PAYLOAD,2024-01-15 20:13:54,15.08842662,0.0001418,53.2155,232.731,98.6591,261.4562,3.6114e-05,2.87e-06,0.0,0 STARLINK-5200,1 54103U 22136BE  24015.84299441  .00000287  00000-0  36114-4 0  9996,2 54103  53.2155 232.7310 0001418  98.6591 261.4562 15.08842662 68930,6917.872,95.437,540.718,538.756,0.0
54103.0,STARLINK-5200,PAYLOAD,2024-01-15 23:24:41,15.08842746,0.0001386,53.2155,232.137,90.0741,270.041,3.3741e-05,2.49e-06,0.0,0 STARLINK-5200,1 54103U 22136BE  24015.97547457  .00000249  00000-0  33741-4 0  9994,2 54103  53.2155 232.1370 0001386  90.0741 270.0410 15.08842746 69423,6917.872,95.437,540.696,538.778,0.0
54103.0,STARLINK-5200,PAYLOAD,2024-01-16 18:29:18,15.08837754,0.000142,53.2158,228.5691,83.213,276.9024,3.8028e-05,3.17e-06,0.0,0 STARLINK-5200,1 54103U 22136BE  24016.77035870  .00000317  00000-0  38028-4 0  9993,2 54103  53.2158 228.5691 0001420  83.2130 276.9024 15.08837754 69548,6917.887,95.438,540.735,538.77,0.0
54103.0,STARLINK-5200,PAYLOAD,2024-01-16 21:40:05,15.08839242,0.0001512,53.2162,227.9749,78.6983,281.4179,4.773e-05,4.72e-06,0.0,0 STARLINK-5200,1 54103U 22136BE  24016.90283796  .00000472  00000-0  47730-4 0  9992,2 54103  53.2162 227.9749 0001512  78.6983 281.4179 15.08839242 69092,6917.883,95.438,540.794,538.702,0.0
54103.0,STARLINK-5200,PAYLOAD,2024-01-16 23:15:28,15.0884099,0.000149,53.2162,227.6758,82.4435,277.6726,5.868e-05,6.46e-06,0.0,0 STARLINK-5200,1 54103U 22136BE  24016.96907608  .00000646  00000-0  58680-4 0  9992,2 54103  53.2162 227.6758 0001490  82.4435 277.6726 15.08840990 69108,6917.877,95.437,540.773,538.712,0.0
54103.0,STARLINK-5200,PAYLOAD,2024-01-17 19:55:27,15.08858822,0.000138,53.2161,223.8108,79.8611,280.2537,0.00022597,3.312e-05,0.0,0 STARLINK-5200,1 54103U 22136BE  24017.83017654  .00003312  00000-0  22597-3 0  9992,2 54103  53.2161 223.8108 0001380  79.8611 280.2537 15.08858822 69707,6917.823,95.436,540.643,538.733,0.0
54103.0,STARLINK-5200,PAYLOAD,2024-01-18 13:24:43,15.08842332,0.0001371,53.2163,220.5413,90.0754,270.0395,2.9282e-05,1.78e-06,0.0,0 STARLINK-5200,1 54103U 22136BE  24018.55883171  .00000178  00000-0  29282-4 0  9993,2 54103  53.2163 220.5413 0001371  90.0754 270.0395 15.08842332 69815,6917.873,95.437,540.687,538.79,0.0
54103.0,STARLINK-5200,PAYLOAD,2024-01-18 19:46:15,15.08835564,0.0001325,53.2162,219.3453,114.5844,245.5286,-8.488e-06,-4.23e-06,0.0,0 STARLINK-5200,1 54103U 22136BE  24018.82379573 -.00000423  00000-0 -84880-5 0  9990,2 54103  53.2162 219.3453 0001325 114.5844 245.5286 15.08835564 69854,6917.894,95.438,540.676,538.842,0.0
54103.0,STARLINK-5200,PAYLOAD,2024-01-18 22:57:02,15.08831404,0.0001203,53.2161,218.7537,97.0321,263.0808,-5.2351e-05,-1.121e-05,0.0,0 STARLINK-5200,1 54103U 22136BE  24018.95628050 -.00001121  00000-0 -52351-4 0  9994,2 54103  53.2161 218.7537 0001203  97.0321 263.0808 15.08831404 69875,6917.907,95.438,540.604,538.939,0.0
54103.0,STARLINK-5200,PAYLOAD,2024-01-19 13:15:30,15.08821658,0.0001242,53.2161,216.0773,103.3472,256.7658,0.00013033,1.786e-05,0.0,0 STARLINK-5200,1 54103U 22136BE  24019.55243865  .00001786  00000-0  13033-3 0  9996,2 54103  53.2161 216.0773 0001242 103.3472 256.7658 15.08821658 69499,6917.936,95.439,540.661,538.942,0.0
54103.0,STARLINK-5200,PAYLOAD,2024-01-19 19:37:02,15.08843412,0.0001264,53.2158,214.8883,88.2683,271.8454,-7.6594e-05,-1.507e-05,0.0,0 STARLINK-5200,1 54103U 22136BE  24019.81739416 -.00001507  00000-0 -76594-4 0  9992,2 54103  53.2158 214.8883 0001264  88.2683 271.8454 15.08843412 70005,6917.87,95.437,540.609,538.861,0.0
54103.0,STARLINK-5200,PAYLOAD,2024-01-19 22:47:49,15.08828822,0.0001278,53.2158,214.294,88.7386,271.3752,0.00010986,1.46e-05,0.0,0 STARLINK-5200,1 54103U 22136BE  24019.94987860  .00001460  00000-0  10986-3 0  9992,2 54103  53.2158 214.2940 0001278  88.7386 271.3752 15.08828822 69555,6917.915,95.438,540.664,538.895,0.0
54103.0,STARLINK-5200,PAYLOAD,2024-01-20 13:06:17,15.08829521,0.0001327,53.2157,211.6181,74.8685,285.2454,0.00014877,2.08e-05,0.0,0 STARLINK-5200,1 54103U 22136BE  24020.54604029  .00002080  00000-0  14877-3 0  9995,2 54103  53.2157 211.6181 0001327  74.8685 285.2454 15.08829521 69645,6917.912,95.438,540.695,538.859,0.0
54103.0,STARLINK-5200,PAYLOAD,2024-01-20 22:38:36,15.08834282,0.0001358,53.2157,209.8339,74.3991,285.7151,0.00018632,2.678e-05,0.0,0 STARLINK-5200,1 54103U 22136BE  24020.94348033  .00002678  00000-0  18632-3 0  9995,2 54103  53.2157 209.8339 0001358  74.3991 285.7151 15.08834282 69704,6917.898,95.438,540.702,538.823,0.0
54103.0,STARLINK-5200,PAYLOAD,2024-01-21 12:57:04,15.08841979,0.0001335,53.2157,207.1573,76.5235,283.5906,0.00014715,2.055e-05,0.0,0 STARLINK-5200,1 54103U 22136BE  24021.53963883  .00002055  00000-0  14715-3 0  9994,2 54103  53.2157 207.1573 0001335  76.5235 283.5906 15.08841979 70263,6917.874,95.437,540.663,538.816,0.0
54103.0,STARLINK-5200,PAYLOAD,2024-01-21 17:43:14,15.08843767,0.0001334,53.2158,206.2651,76.6988,283.4153,0.00015702,2.212e-05,0.0,0 STARLINK-5200,1 54103U 22136BE  24021.73835774  .00002212  00000-0  15702-3 0  9995,2 54103  53.2158 206.2651 0001334  76.6988 283.4153 15.08843767 69826,6917.869,95.437,540.657,538.811,0.0
54103.0,STARLINK-5200,PAYLOAD,2024-01-22 11:12:28,15.08839989,0.0001357,53.2156,202.9944,76.8082,283.3061,0.00010533,1.389e-05,0.0,0 STARLINK-5200,1 54103U 22136BE  24022.46700212  .00001389  00000-0  10533-3 0  9995,2 54103  53.2156 202.9944 0001357  76.8082 283.3061 15.08839989 70408,6917.88,95.438,540.684,538.807,0.0
54103.0,STARLINK-5200,PAYLOAD,2024-01-22 19:09:24,15.08840264,0.0001363,53.216,201.5074,73.7697,286.3445,5.3969e-05,5.71e-06,0.0,0 STARLINK-5200,1 54103U 22136BE  24022.79820231  .00000571  00000-0  53969-4 0  9998,2 54103  53.2160 201.5074 0001363  73.7697 286.3445 15.08840264 69985,6917.88,95.438,540.687,538.802,0.0
54103.0,STARLINK-5200,PAYLOAD,2024-01-23 15:49:25,15.0884288,0.0001367,53.2162,197.6418,73.7416,286.3727,5.6442e-05,6.11e-06,0.0,0 STARLINK-5200,1 54103U 22136BE  24023.65932060  .00000611  00000-0  56442-4 0  9992,2 54103  53.2162 197.6418 0001367  73.7416 286.3727 15.08842880 70584,6917.872,95.437,540.682,538.791,0.0
54103.0,STARLINK-5200,PAYLOAD,2024-01-23 17:24:48,15.08842653,0.0001411,53.2162,197.3444,71.1015,289.013,5.2631e-05,5.5e-06,0.0,0 STARLINK-5200,1 54103U 22136BE  24023.72556009  .00000550  00000-0  52631-4 0  9993,2 54103  53.2162 197.3444 0001411  71.1015 289.0130 15.08842653 70123,6917.872,95.437,540.713,538.761,0.0
54103.0,STARLINK-5200,PAYLOAD,2024-01-24 18:50:58,15.08843078,0.0001427,53.2165,192.5858,76.6231,283.492,9.4859e-05,1.222e-05,0.0,0 STARLINK-5200,1 54103U 22136BE  24024.78539975  .00001222  00000-0  94859-4 0  9998,2 54103  53.2165 192.5858 0001427  76.6231 283.4920 15.08843078 70755,6917.871,95.437,540.723,538.749,0.0
54103.0,STARLINK-5200,PAYLOAD,2024-01-25 17:06:22,15.08841204,0.0001323,53.2164,188.4217,89.2745,270.8399,1.3952e-05,-6.6e-07,0.0,0 STARLINK-5200,1 54103U 22136BE  24025.71276371 -.00000066  00000-0  13952-4 0  9991,2 54103  53.2164 188.4217 0001323  89.2745 270.8399 15.08841204 70896,6917.877,95.437,540.657,538.826,0.0
54103.0,STARLINK-5200,PAYLOAD,2024-01-26 13:46:22,15.08851226,0.0001362,53.2172,184.5538,103.1944,256.92,1.4602e-05,-5.5e-07,0.0,0 STARLINK-5200,1 54103U 22136BE  24026.57387725 -.00000055  00000-0  14602-4 0  9993,2 54103  53.2172 184.5538 0001362 103.1944 256.9200 15.08851226 70552,6917.846,95.437,540.653,538.769,0.0
54103.0,STARLINK-5200,PAYLOAD,2024-01-26 16:57:09,15.0884649,0.0001465,53.2171,183.9599,82.2831,277.8327,0.00013959,1.935e-05,0.0,0 STARLINK-5200,1 54103U 22136BE  24026.70635718  .00001935  00000-0  13959-3 0  9996,2 54103  53.2171 183.9599 0001465  82.2831 277.8327 15.08846490 71041,6917.861,95.437,540.739,538.712,0.0
54103.0,STARLINK-5200,PAYLOAD,2024-01-27 13:37:10,15.08842588,0.0001489,53.2168,180.095,80.3914,279.7246,6.1101e-05,6.85e-06,0.0,0 STARLINK-5200,1 54103U 22136BE  24027.56748241  .00000685  00000-0  61101-4 0  9991,2 54103  53.2168 180.0950 0001489  80.3914 279.7246 15.08842588 71172,6917.872,95.437,540.768,538.707,0.0
54103.0,STARLINK-5200,PAYLOAD,2024-01-27 16:47:56,15.08841376,0.0001417,53.2171,179.5001,81.5364,278.5788,5.0183e-05,5.11e-06,0.0,0 STARLINK-5200,1 54103U 22136BE  24027.69996292  .00000511  00000-0  50183-4 0  9992,2 54103  53.2171 179.5001 0001417  81.5364 278.5788 15.08841376 70721,6917.876,95.437,540.721,538.761,0.0
54103.0,STARLINK-5200,PAYLOAD,2024-01-28 10:17:11,15.08836879,0.0001599,53.2186,176.2344,97.8298,262.2875,-1.8272e-05,-5.79e-06,0.0,0 STARLINK-5200,1 54103U 22136BE  24028.42860790 -.00000579  00000-0 -18272-4 0  9996,2 54103  53.2186 176.2344 0001599  97.8298 262.2875 15.08836879 71302,6917.89,95.438,540.861,538.649,0.0
54103.0,STARLINK-5200,PAYLOAD,2024-01-28 13:27:57,15.0883736,0.0001627,53.2187,175.6402,106.6183,253.4988,-1.9321e-05,-5.95e-06,0.0,0 STARLINK-5200,1 54103U 22136BE  24028.56108723 -.00000595  00000-0 -19321-4 0  9996,2 54103  53.2187 175.6402 0001627 106.6183 253.4988 15.08837360 70857,6917.888,95.438,540.879,538.628,0.0
